start=new Date('2022-11-02T00:00:00.000Z').valueOf();
sats=[{"FILE":"3640431","APOAPSIS":"541.041","PERIOD":"95.437","NORAD_CAT_ID":"52991","CENTER_NAME":"EARTH","OBJECT_NAME":"STARLINK-4285","RCS_SIZE":"LARGE","ELEMENT_SET_NO":"999","TIME_SYSTEM":"UTC","CLASSIFICATION_TYPE":"U","EPHEMERIS_TYPE":"0","MEAN_ANOMALY":"110.8155","MEAN_MOTION":"15.08846003","RA_OF_ASC_NODE":"197.8587","SITE":"AFETR","OBJECT_TYPE":"PAYLOAD","LAUNCH_DATE":"2022-07-07","INCLINATION":"53.2163","ARG_OF_PERICENTER":"42.9554","PERIAPSIS":"538.413","OBJECT_ID":"2022-076F","DECAY_DATE":null,"BSTAR":"-0.00146450000000","MEAN_MOTION_DOT":"-0.00023524","ECCENTRICITY":"0.00019000","MEAN_ELEMENT_THEORY":"SGP4","TLE_LINE2":"2 52991  53.2163 197.8587 0001900  42.9554 110.8155 15.08846003  1302","REV_AT_EPOCH":"130","COUNTRY_CODE":"US","TLE_LINE1":"1 52991U 22076F   22305.91667824 -.00023524  00000-0 -14645-2 0  9998","MEAN_MOTION_DDOT":"0.0000000000000","REF_FRAME":"TEME","EPOCH":"2022-11-01T22:00:00.999936","SEMIMAJOR_AXIS":"6917.862","GP_ID":"216688069"},{"SITE":"AFETR","RA_OF_ASC_NODE":"197.8626","MEAN_MOTION":"15.08842397","MEAN_ANOMALY":"133.8852","PERIAPSIS":"538.221","ARG_OF_PERICENTER":"39.8935","LAUNCH_DATE":"2022-07-07","INCLINATION":"53.2175","OBJECT_TYPE":"PAYLOAD","CENTER_NAME":"EARTH","PERIOD":"95.437","NORAD_CAT_ID":"52992","APOAPSIS":"541.255","FILE":"3640431","EPHEMERIS_TYPE":"0","CLASSIFICATION_TYPE":"U","ELEMENT_SET_NO":"999","TIME_SYSTEM":"UTC","RCS_SIZE":"LARGE","OBJECT_NAME":"STARLINK-4269","REV_AT_EPOCH":"130","TLE_LINE2":"2 52992  53.2175 197.8626 0002193  39.8935 133.8852 15.08842397  1304","MEAN_ELEMENT_THEORY":"SGP4","GP_ID":"216688818","SEMIMAJOR_AXIS":"6917.873","EPOCH":"2022-11-01T22:00:00.999936","REF_FRAME":"TEME","MEAN_MOTION_DDOT":"0.0000000000000","TLE_LINE1":"1 52992U 22076G   22305.91667824 -.00021979  00000-0 -13669-2 0  9996","COUNTRY_CODE":"US","BSTAR":"-0.00136690000000","DECAY_DATE":null,"OBJECT_ID":"2022-076G","ECCENTRICITY":"0.00021930","MEAN_MOTION_DOT":"-0.00021979"},{"BSTAR":"-0.00319050000000","OBJECT_ID":"2022-076H","DECAY_DATE":null,"MEAN_MOTION_DOT":"-0.00050746","ECCENTRICITY":"0.00020800","REV_AT_EPOCH":"130","TLE_LINE2":"2 52993  53.2165 187.8634 0002080  37.1365 311.5921 15.08866971  1301","MEAN_ELEMENT_THEORY":"SGP4","EPOCH":"2022-11-01T22:00:00.999936","REF_FRAME":"TEME","GP_ID":"216687816","SEMIMAJOR_AXIS":"6917.798","COUNTRY_CODE":"US","TLE_LINE1":"1 52993U 22076H   22305.91667824 -.00050746  00000-0 -31905-2 0  9994","MEAN_MOTION_DDOT":"0.0000000000000","PERIOD":"95.436","CENTER_NAME":"EARTH","NORAD_CAT_ID":"52993","FILE":"3640431","APOAPSIS":"541.102","TIME_SYSTEM":"UTC","ELEMENT_SET_NO":"999","EPHEMERIS_TYPE":"0","CLASSIFICATION_TYPE":"U","RCS_SIZE":"LARGE","OBJECT_NAME":"STARLINK-4264","RA_OF_ASC_NODE":"187.8634","MEAN_MOTION":"15.08866971","SITE":"AFETR","MEAN_ANOMALY":"311.5921","PERIAPSIS":"538.224","ARG_OF_PERICENTER":"37.1365","OBJECT_TYPE":"PAYLOAD","INCLINATION":"53.2165","LAUNCH_DATE":"2022-07-07"},{"RCS_SIZE":"LARGE","OBJECT_NAME":"STARLINK-4256","EPHEMERIS_TYPE":"0","CLASSIFICATION_TYPE":"U","TIME_SYSTEM":"UTC","ELEMENT_SET_NO":"999","APOAPSIS":"541.315","FILE":"3640431","PERIOD":"95.435","CENTER_NAME":"EARTH","NORAD_CAT_ID":"52994","LAUNCH_DATE":"2022-07-07","INCLINATION":"53.2158","OBJECT_TYPE":"PAYLOAD","PERIAPSIS":"537.948","ARG_OF_PERICENTER":"27.5413","MEAN_ANOMALY":"341.1734","SITE":"AFETR","RA_OF_ASC_NODE":"187.8603","MEAN_MOTION":"15.08877243","ECCENTRICITY":"0.00024340","MEAN_MOTION_DOT":"-0.00068668","DECAY_DATE":null,"OBJECT_ID":"2022-076J","BSTAR":"-0.00433320000000","TLE_LINE1":"1 52994U 22076J   22305.91667824 -.00068668  00000-0 -43332-2 0  9994","MEAN_MOTION_DDOT":"0.0000000000000","COUNTRY_CODE":"US","SEMIMAJOR_AXIS":"6917.767","GP_ID":"216688398","EPOCH":"2022-11-01T22:00:00.999936","REF_FRAME":"TEME","MEAN_ELEMENT_THEORY":"SGP4","REV_AT_EPOCH":"130","TLE_LINE2":"2 52994  53.2158 187.8603 0002434  27.5413 341.1734 15.08877243  1305"},{"NORAD_CAT_ID":"52995","PERIOD":"95.436","CENTER_NAME":"EARTH","FILE":"3640431","APOAPSIS":"541.555","TIME_SYSTEM":"UTC","ELEMENT_SET_NO":"999","CLASSIFICATION_TYPE":"U","EPHEMERIS_TYPE":"0","OBJECT_NAME":"STARLINK-4296","RCS_SIZE":"LARGE","MEAN_MOTION":"15.08866411","RA_OF_ASC_NODE":"187.8532","SITE":"AFETR","MEAN_ANOMALY":"25.2448","ARG_OF_PERICENTER":"23.5131","PERIAPSIS":"537.774","OBJECT_TYPE":"PAYLOAD","LAUNCH_DATE":"2022-07-07","INCLINATION":"53.2154","BSTAR":"-0.00381820000000","OBJECT_ID":"2022-076K","DECAY_DATE":null,"MEAN_MOTION_DOT":"-0.00060593","ECCENTRICITY":"0.00027330","TLE_LINE2":"2 52995  53.2154 187.8532 0002733  23.5131  25.2448 15.08866411  1305","REV_AT_EPOCH":"130","MEAN_ELEMENT_THEORY":"SGP4","REF_FRAME":"TEME","EPOCH":"2022-11-01T22:00:00.999936","GP_ID":"216687651","SEMIMAJOR_AXIS":"6917.800","COUNTRY_CODE":"US","MEAN_MOTION_DDOT":"0.0000000000000","TLE_LINE1":"1 52995U 22076K   22305.91667824 -.00060593  00000-0 -38182-2 0  9991"},{"MEAN_MOTION_DOT":"-0.00019752","ECCENTRICITY":"0.00021330","OBJECT_ID":"2022-076L","DECAY_DATE":null,"BSTAR":"-0.00122600000000","COUNTRY_CODE":"US","TLE_LINE1":"1 52996U 22076L   22305.91667824 -.00019752  00000-0 -12260-2 0  9992","MEAN_MOTION_DDOT":"0.0000000000000","REF_FRAME":"TEME","EPOCH":"2022-11-01T22:00:00.999936","SEMIMAJOR_AXIS":"6917.854","GP_ID":"216688566","MEAN_ELEMENT_THEORY":"SGP4","TLE_LINE2":"2 52996  53.2162 187.8589 0002133  38.8176 349.9221 15.08848506  1309","REV_AT_EPOCH":"130","OBJECT_NAME":"STARLINK-4295","RCS_SIZE":"LARGE","ELEMENT_SET_NO":"999","TIME_SYSTEM":"UTC","CLASSIFICATION_TYPE":"U","EPHEMERIS_TYPE":"0","FILE":"3640431","APOAPSIS":"541.195","NORAD_CAT_ID":"52996","PERIOD":"95.437","CENTER_NAME":"EARTH","OBJECT_TYPE":"PAYLOAD","LAUNCH_DATE":"2022-07-07","INCLINATION":"53.2162","ARG_OF_PERICENTER":"38.8176","PERIAPSIS":"538.244","MEAN_ANOMALY":"349.9221","MEAN_MOTION":"15.08848506","RA_OF_ASC_NODE":"187.8589","SITE":"AFETR"},{"MEAN_ELEMENT_THEORY":"SGP4","TLE_LINE2":"2 52997  53.2147 187.8471 0002156  38.2822  70.4250 15.08870461  1303","REV_AT_EPOCH":"130","MEAN_MOTION_DDOT":"0.0000000000000","TLE_LINE1":"1 52997U 22076M   22305.91667824 -.00057025  00000-0 -35903-2 0  9997","COUNTRY_CODE":"US","GP_ID":"216688235","SEMIMAJOR_AXIS":"6917.787","REF_FRAME":"TEME","EPOCH":"2022-11-01T22:00:00.999936","DECAY_DATE":null,"OBJECT_ID":"2022-076M","BSTAR":"-0.00359030000000","ECCENTRICITY":"0.00021560","MEAN_MOTION_DOT":"-0.00057025","MEAN_ANOMALY":"70.4250","SITE":"AFETR","MEAN_MOTION":"15.08870461","RA_OF_ASC_NODE":"187.8471","LAUNCH_DATE":"2022-07-07","INCLINATION":"53.2147","OBJECT_TYPE":"PAYLOAD","ARG_OF_PERICENTER":"38.2822","PERIAPSIS":"538.161","APOAPSIS":"541.144","FILE":"3640431","PERIOD":"95.436","CENTER_NAME":"EARTH","NORAD_CAT_ID":"52997","OBJECT_NAME":"STARLINK-4301","RCS_SIZE":"LARGE","CLASSIFICATION_TYPE":"U","EPHEMERIS_TYPE":"0","TIME_SYSTEM":"UTC","ELEMENT_SET_NO":"999"},{"BSTAR":"-0.00243430000000","OBJECT_ID":"2022-076N","DECAY_DATE":null,"MEAN_MOTION_DOT":"-0.00038845","ECCENTRICITY":"0.00016100","REV_AT_EPOCH":"130","TLE_LINE2":"2 52998  53.2172 187.8616 0001610  56.6108   6.9003 15.08862057  1300","MEAN_ELEMENT_THEORY":"SGP4","EPOCH":"2022-11-01T22:00:00.999936","REF_FRAME":"TEME","GP_ID":"216687980","SEMIMAJOR_AXIS":"6917.813","COUNTRY_CODE":"US","TLE_LINE1":"1 52998U 22076N   22305.91667824 -.00038845  00000-0 -24343-2 0  9993","MEAN_MOTION_DDOT":"0.0000000000000","CENTER_NAME":"EARTH","PERIOD":"95.436","NORAD_CAT_ID":"52998","FILE":"3640431","APOAPSIS":"540.792","ELEMENT_SET_NO":"999","TIME_SYSTEM":"UTC","EPHEMERIS_TYPE":"0","CLASSIFICATION_TYPE":"U","RCS_SIZE":"LARGE","OBJECT_NAME":"STARLINK-4254","RA_OF_ASC_NODE":"187.8616","MEAN_MOTION":"15.08862057","SITE":"AFETR","MEAN_ANOMALY":"6.9003","PERIAPSIS":"538.564","ARG_OF_PERICENTER":"56.6108","OBJECT_TYPE":"PAYLOAD","INCLINATION":"53.2172","LAUNCH_DATE":"2022-07-07"},{"MEAN_ANOMALY":"82.6352","SITE":"AFETR","MEAN_MOTION":"15.08859683","RA_OF_ASC_NODE":"187.8373","LAUNCH_DATE":"2022-07-07","INCLINATION":"53.2169","OBJECT_TYPE":"PAYLOAD","ARG_OF_PERICENTER":"66.1214","PERIAPSIS":"538.645","APOAPSIS":"540.725","FILE":"3640431","CENTER_NAME":"EARTH","PERIOD":"95.436","NORAD_CAT_ID":"52999","OBJECT_NAME":"STARLINK-4217","RCS_SIZE":"LARGE","CLASSIFICATION_TYPE":"U","EPHEMERIS_TYPE":"0","TIME_SYSTEM":"UTC","ELEMENT_SET_NO":"999","MEAN_ELEMENT_THEORY":"SGP4","TLE_LINE2":"2 52999  53.2169 187.8373 0001503  66.1214  82.6352 15.08859683  1301","REV_AT_EPOCH":"130","MEAN_MOTION_DDOT":"0.0000000000000","TLE_LINE1":"1 52999U 22076P   22305.91667824 -.00053100  00000-0 -33412-2 0  9992","COUNTRY_CODE":"US","GP_ID":"216688070","SEMIMAJOR_AXIS":"6917.820","REF_FRAME":"TEME","EPOCH":"2022-11-01T22:00:00.999936","DECAY_DATE":null,"OBJECT_ID":"2022-076P","BSTAR":"-0.00334120000000","ECCENTRICITY":"0.00015030","MEAN_MOTION_DOT":"-0.00053100"},{"MEAN_MOTION_DOT":"-0.00072263","ECCENTRICITY":"0.00023240","OBJECT_ID":"2022-076Q","DECAY_DATE":null,"BSTAR":"-0.00456360000000","COUNTRY_CODE":"US","TLE_LINE1":"1 53000U 22076Q   22305.91667824 -.00072263  00000-0 -45636-2 0  9998","MEAN_MOTION_DDOT":"0.0000000000000","EPOCH":"2022-11-01T22:00:00.999936","REF_FRAME":"TEME","GP_ID":"216688819","SEMIMAJOR_AXIS":"6917.772","MEAN_ELEMENT_THEORY":"SGP4","REV_AT_EPOCH":"130","TLE_LINE2":"2 53000  53.2170 187.8594 0002324  33.2876  35.4459 15.08875415  1308","RCS_SIZE":"LARGE","OBJECT_NAME":"STARLINK-4194","ELEMENT_SET_NO":"999","TIME_SYSTEM":"UTC","EPHEMERIS_TYPE":"0","CLASSIFICATION_TYPE":"U","FILE":"3640431","APOAPSIS":"541.245","PERIOD":"95.435","CENTER_NAME":"EARTH","NORAD_CAT_ID":"53000","OBJECT_TYPE":"PAYLOAD","INCLINATION":"53.2170","LAUNCH_DATE":"2022-07-07","PERIAPSIS":"538.029","ARG_OF_PERICENTER":"33.2876","MEAN_ANOMALY":"35.4459","RA_OF_ASC_NODE":"187.8594","MEAN_MOTION":"15.08875415","SITE":"AFETR"}];
